#aV2016  2 15  0  0  0.00000000     288 DD+AD WGS84 FIT  NGA
## 1884  86400.00000000   300.00000000 57433 0.0000000000000
+   30     1  2  3  5  6  7  8  9 10 11 12 13 14 15 16 17 18
+         19 20 21 22 23 24 25 26 27 28 29 30 31  0  0  0  0
+          0  0  0  0  0  0  0  0  0  0  0  0  0  0  0  0  0
+          0  0  0  0  0  0  0  0  0  0  0  0  0  0  0  0  0
+          0  0  0  0  0  0  0  0  0  0  0  0  0  0  0  0  0
++         2  2  2  2  2  2  2  2  2  2  2  2  2  2  2  2  2
++         2  2  2  2  2  2  2  2  2  2  2  2  2  0  0  0  0
++         0  0  0  0  0  0  0  0  0  0  0  0  0  0  0  0  0
++         0  0  0  0  0  0  0  0  0  0  0  0  0  0  0  0  0
++         0  0  0  0  0  0  0  0  0  0  0  0  0  0  0  0  0
%c cc cc ccc ccc cccc cccc cccc cccc ccccc ccccc ccccc ccccc
%c cc cc ccc ccc cccc cccc cccc cccc ccccc ccccc ccccc ccccc
%f  0.0000000  0.000000000  0.00000000000  0.000000000000000
%f  0.0000000  0.000000000  0.00000000000  0.000000000000000
%i    0    0    0    0      0      0      0      0         0
%i    0    0    0    0      0      0      0      0         0
/*      NGA, ST. LOUIS,MO.                                  
/*   EPHEMERIS COMPUTED FROM 2 DAYS OF DATA                 
/*   EPOCHA v2.4 SMOOTHER                                   
/*   G1762 IERS2010 SATAF SATAPC                            
*  2016  2 15 12  5  0.00000000
P  1  -3863.507869  17201.655909 -19870.756197     11.809242                    
V  1 -23144.821247   9863.339227  13299.584143      0.010065                    
P  2  21574.537000 -14728.180787   3742.843030    599.547196                    
V  2   5536.023102   1174.978397 -31137.790312     -0.000277                    
P  3   6204.264879  18944.224123 -17546.985488    -24.883701                    
V  3 -19474.057765 -10973.592498 -18746.445105     -0.047152                    
P  5  13735.898772  -8969.464036  20852.789506   -145.877461                    
V  5  21913.553700  15186.637829  -7682.677686      0.034253                    
P  6  24316.039894  -4577.354002  -9637.377971    145.857756                    
V  6  -9887.791404   7634.361431 -28551.580490      0.059982                    
P  7  13048.984876   9961.979610  21086.078405    469.516494                    
V  7 -23704.083903  11567.152374   8877.616490     -0.016459                    
P  8  -6219.749171  24922.218579   6777.360181    -23.964667                    
V  8  -2140.802621  -8677.473938  30214.982375     -0.014620                    
P  9   8994.395506  20402.386431  14403.489176     71.183715                    
V  9  -3334.441250  18177.048446 -23642.438994      0.076770                    
P 10 -23707.945486  -9420.601003  -7483.617430     43.035311                    
V 10  -6461.596921  -7451.829884  29760.466091     -0.046046                    
P 11  -5787.769462  22312.366748 -13698.915904   -632.434299                    
V 11 -13999.237628   9827.752821  22905.001209     -0.017789                    
P 12  -1994.399846 -17725.333020 -19870.954754    368.223841                    
V 12  20344.928400  14253.790956 -14629.299226      0.025806                    
P 13  12407.183169 -19672.670325  12772.151488   -185.459278                    
V 13   -955.426552  16477.693816  25939.561778     -0.025110                    
P 14 -14420.422930  -4770.790714 -21549.725742      2.942386                    
V 14   4173.131614 -27622.645068   3139.389171     -0.022497                    
P 15   2330.122006 -26106.503431   2811.722251   -297.303639                    
V 15   3999.505162   3806.778205  31026.450910     -0.018286                    
P 16 -14277.637024   6651.705692  21369.826521    -39.624472                    
V 16 -21290.286441 -16894.479419  -8553.844576      0.030932                    
P 17  13964.575533   6051.978132 -21461.504775   -200.683834                    
V 17  -3434.259811  27754.433965   5319.406714     -0.006479                    
P 18 -20391.364381 -16779.532695   4496.938510    483.771594                    
V 18   6184.745581   -329.199908  30083.581411      0.039329                    
P 19  15493.542131  -3632.170796 -21577.028171   -524.869032                    
V 19  -3935.202900  26433.420045  -6941.932427     -0.001275                    
P 20  -3201.946000 -18109.962801  18987.454139    392.977549                    
V 20  22347.948411  10403.495446  13633.803272      0.026068                    
P 21 -16703.925099  -7836.259624  19938.846941   -510.545338                    
V 21  20499.719953 -12043.382695  12641.007849     -0.018371                    
P 22 -17379.759317   6057.943126 -18992.676500    396.744516                    
V 22 -19986.562916 -14552.218961  13322.976407     -0.058802                    
P 23   1698.708362  25878.138863   4696.951209   -160.156691                    
V 23  -3928.464161   5592.952840 -30946.622939     -0.018795                    
P 24   6804.303050 -18132.113865 -18140.865582    -12.405744                    
V 24  21274.770311  -9020.788201  17231.085572     -0.006073                    
P 25 -14362.767607 -19162.743994 -11794.215475   -117.447626                    
V 25  13194.666602   6744.272253 -27084.652513     -0.067080                    
P 26 -21204.832553   -572.094698  16013.044377   -255.355728                    
V 26 -15919.455785 -12754.158616 -21499.589068     -0.156802                    
P 27 -11729.159505  18021.922779  15468.674046     63.042397                    
V 27   -677.671680 -19800.380456  22670.600609      0.035941                    
P 28  22516.845383  12234.461745  -6437.853047    502.594228                    
V 28   5910.332200   7026.892143  30946.093067      0.026956                    
P 29  -5683.158317 -22826.062281  12392.587723    654.255489                    
V 29   3764.110489 -15325.341805 -26496.235527      0.008144                    
P 30  21372.817904   3146.969320  15498.351336     96.653384                    
V 30 -17425.784468   9378.330629  22035.104958      0.042804                    
P 31 -25007.707229   5740.283415  -7450.257196    282.556483                    
V 31   7822.034857  -5771.765413 -29891.982872     -0.017039                    
EOF
